NORAD_CAT_ID,OBJECT_NAME,OBJECT_TYPE,EPOCH,MEAN_MOTION,ECCENTRICITY,INCLINATION,RA_OF_ASC_NODE,ARG_OF_PERICENTER,MEAN_ANOMALY,BSTAR,MEAN_MOTION_DOT,MEAN_MOTION_DDOT,TLE_LINE0,TLE_LINE1,TLE_LINE2,SEMIMAJOR_AXIS,PERIOD,APOGEE,PERIGEE,DECAYED
52310.0,STARLINK-3688,PAYLOAD,2023-11-07 01:31:06,15.08789702,0.000169,53.2191,321.2672,100.0722,260.0461,-0.0010434,-0.00016833,0.0,0 STARLINK-3688,1 52310U 22041BB  23311.06326925 -.00016833  00000-0 -10434-2 0  9990,2 52310  53.2191 321.2672 0001690 100.0722 260.0461 15.08789702 86993,6918.034,95.441,541.068,538.73,0.0
52310.0,STARLINK-3688,PAYLOAD,2023-11-07 11:03:24,15.08827775,0.0001416,53.218,319.4793,95.4985,264.6169,0.00021347,3.11e-05,0.0,0 STARLINK-3688,1 52310U 22041BB  23311.46070556  .00003110  00000-0  21347-3 0  9998,2 52310  53.2180 319.4793 0001416  95.4985 264.6169 15.08827775 87054,6917.918,95.438,540.762,538.803,0.0
52310.0,STARLINK-3688,PAYLOAD,2023-11-08 09:18:48,15.08850972,0.0001722,53.2186,315.3188,94.7384,265.3804,0.0005241,8.065e-05,0.0,0 STARLINK-3688,1 52310U 22041BB  23312.38806366  .00008065  00000-0  52410-3 0  9995,2 52310  53.2186 315.3188 0001722  94.7384 265.3804 15.08850972 87192,6917.847,95.437,540.903,538.521,0.0
52310.0,STARLINK-3688,PAYLOAD,2023-11-08 17:15:44,15.0885075,0.000154,53.2176,313.8316,88.4853,271.6315,0.00046337,7.096e-05,0.0,0 STARLINK-3688,1 52310U 22041BB  23312.71926263  .00007096  00000-0  46337-3 0  9995,2 52310  53.2176 313.8316 0001540  88.4853 271.6315 15.08850750 87243,6917.848,95.437,540.778,538.647,0.0
52310.0,STARLINK-3688,PAYLOAD,2023-11-09 04:23:26,15.08844404,0.0001401,53.2179,311.7501,92.2405,267.8748,0.00036884,5.588e-05,0.0,0 STARLINK-3688,1 52310U 22041BB  23313.18294450  .00005588  00000-0  36884-3 0  9993,2 52310  53.2179 311.7501 0001401  92.2405 267.8748 15.08844404 87315,6917.867,95.437,540.701,538.763,0.0
52310.0,STARLINK-3688,PAYLOAD,2023-11-09 09:09:35,15.08855961,0.0001579,53.2174,310.8573,89.0386,271.0787,0.00029972,4.487e-05,0.0,0 STARLINK-3688,1 52310U 22041BB  23313.38165799  .00004487  00000-0  29972-3 0  9995,2 52310  53.2174 310.8573 0001579  89.0386 271.0787 15.08855961 87340,6917.832,95.437,540.789,538.604,0.0
52310.0,STARLINK-3688,PAYLOAD,2023-11-10 04:14:12,15.0884212,0.0001393,53.2171,307.2903,99.7774,260.3375,-8.6588e-05,-1.666e-05,0.0,0 STARLINK-3688,1 52310U 22041BB  23314.17653934 -.00001666  00000-0 -86588-4 0  9991,2 52310  53.2171 307.2903 0001393  99.7774 260.3375 15.08842120 87467,6917.874,95.437,540.703,538.775,0.0
52310.0,STARLINK-3688,PAYLOAD,2023-11-10 07:24:59,15.08846434,0.0001388,53.2162,306.6947,101.6037,258.5111,-1.0881e-05,-4.61e-06,0.0,0 STARLINK-3688,1 52310U 22041BB  23314.30901768 -.00000461  00000-0 -10881-4 0  9992,2 52310  53.2162 306.6947 0001388 101.6037 258.5111 15.08846434 87488,6917.861,95.437,540.686,538.766,0.0
52310.0,STARLINK-3688,PAYLOAD,2023-11-10 16:57:18,15.08840088,0.0001258,53.2157,304.9096,99.0042,261.1093,-9.6098e-06,-4.41e-06,0.0,0 STARLINK-3688,1 52310U 22041BB  23314.70646051 -.00000441  00000-0 -96098-5 0  9990,2 52310  53.2157 304.9096 0001258  99.0042 261.1093 15.08840088 87545,6917.88,95.438,540.615,538.875,0.0
52310.0,STARLINK-3688,PAYLOAD,2023-11-11 08:51:09,15.08851021,0.0001521,53.2171,301.9341,92.7144,267.4022,0.00016272,2.303e-05,0.0,0 STARLINK-3688,1 52310U 22041BB  23315.36885693  .00002303  00000-0  16272-3 0  9991,2 52310  53.2171 301.9341 0001521  92.7144 267.4022 15.08851021 87648,6917.847,95.437,540.764,538.659,0.0
52310.0,STARLINK-3688,PAYLOAD,2023-11-11 16:48:05,15.08844864,0.0001606,53.2165,300.4477,89.8781,270.2395,0.0002159,3.15e-05,0.0,0 STARLINK-3688,1 52310U 22041BB  23315.70006069  .00003150  00000-0  21590-3 0  9991,2 52310  53.2165 300.4477 0001606  89.8781 270.2395 15.08844864 87690,6917.866,95.437,540.842,538.62,0.0
52310.0,STARLINK-3688,PAYLOAD,2023-11-12 08:41:56,15.08850803,0.0001542,53.2163,297.4725,102.0778,258.0387,0.00026864,3.991e-05,0.0,0 STARLINK-3688,1 52310U 22041BB  23316.36245742  .00003991  00000-0  26864-3 0  9999,2 52310  53.2163 297.4725 0001542 102.0778 258.0387 15.08850803 87798,6917.847,95.437,540.779,538.646,0.0
52310.0,STARLINK-3688,PAYLOAD,2023-11-13 03:46:34,15.08840997,0.0001561,53.2178,293.9025,109.1283,250.9878,0.00015532,2.185e-05,0.0,0 STARLINK-3688,1 52310U 22041BB  23317.15734016  .00002185  00000-0  15532-3 0  9998,2 52310  53.2178 293.9025 0001561 109.1283 250.9878 15.08840997 87911,6917.877,95.437,540.822,538.662,0.0
52310.0,STARLINK-3688,PAYLOAD,2023-11-13 08:32:43,15.0884963,0.0001479,53.2172,293.0119,97.0955,263.0206,0.00015675,2.208e-05,0.0,0 STARLINK-3688,1 52310U 22041BB  23317.35605599  .00002208  00000-0  15675-3 0  9997,2 52310  53.2172 293.0119 0001479  97.0955 263.0206 15.08849630 87945,6917.851,95.437,540.739,538.693,0.0
52310.0,STARLINK-3688,PAYLOAD,2023-11-13 22:51:11,15.08841386,0.0001788,53.217,290.3349,112.1566,247.9616,2.973e-05,1.85e-06,0.0,0 STARLINK-3688,1 52310U 22041BB  23317.95221880  .00000185  00000-0  29730-4 0  9990,2 52310  53.2170 290.3349 0001788 112.1566 247.9616 15.08841386 88035,6917.876,95.437,540.978,538.504,0.0
52310.0,STARLINK-3688,PAYLOAD,2023-11-14 03:37:20,15.0884458,0.0001767,53.2173,289.4427,111.2812,248.8369,6.757e-05,7.88e-06,0.0,0 STARLINK-3688,1 52310U 22041BB  23318.15093663  .00000788  00000-0  67570-4 0  9992,2 52310  53.2173 289.4427 0001767 111.2812 248.8369 15.08844580 88062,6917.866,95.437,540.954,538.509,0.0
52310.0,STARLINK-3688,PAYLOAD,2023-11-14 05:12:43,15.08846019,0.0001486,53.2164,289.1477,100.0002,260.1158,9.7435e-05,1.263e-05,0.0,0 STARLINK-3688,1 52310U 22041BB  23318.21717551  .00001263  00000-0  97435-4 0  9990,2 52310  53.2164 289.1477 0001486 100.0002 260.1158 15.08846019 88072,6917.862,95.437,540.755,538.699,0.0
52310.0,STARLINK-3688,PAYLOAD,2023-11-14 22:41:58,15.08838254,0.0001869,53.2184,285.8774,97.4472,262.6732,-5.7064e-05,-1.196e-05,0.0,0 STARLINK-3688,1 52310U 22041BB  23318.94582104 -.00001196  00000-0 -57064-4 0  9995,2 52310  53.2184 285.8774 0001869  97.4472 262.6732 15.08838254 88181,6917.886,95.438,541.044,538.458,0.0
52310.0,STARLINK-3688,PAYLOAD,2023-11-15 03:28:08,15.0883673,0.000148,53.2172,284.9855,98.057,262.059,-6.3655e-05,-1.301e-05,0.0,0 STARLINK-3688,1 52310U 22041BB  23319.14454151 -.00001301  00000-0 -63655-4 0  9999,2 52310  53.2172 284.9855 0001480  98.0570 262.0590 15.08836730 88210,6917.89,95.438,540.779,538.732,0.0
52310.0,STARLINK-3688,PAYLOAD,2023-11-15 14:35:50,15.08839006,0.0001457,53.2176,282.9046,94.9719,265.144,-4.6824e-06,-3.62e-06,0.0,0 STARLINK-3688,1 52310U 22041BB  23319.60822170 -.00000362  00000-0 -46824-5 0  9996,2 52310  53.2176 282.9046 0001457  94.9719 265.1440 15.08839006 88282,6917.883,95.438,540.756,538.74,0.0
52310.0,STARLINK-3688,PAYLOAD,2023-11-16 06:29:41,15.088441,0.0001436,53.2172,279.9313,95.1431,264.9725,0.00014509,2.022e-05,0.0,0 STARLINK-3688,1 52310U 22041BB  23320.27062269  .00002022  00000-0  14509-3 0  9992,2 52310  53.2172 279.9313 0001436  95.1431 264.9725 15.08844100 88387,6917.868,95.437,540.726,538.739,0.0
52310.0,STARLINK-3688,PAYLOAD,2023-11-17 06:20:29,15.08840483,0.000143,53.2173,275.47,87.769,272.3466,0.00016428,2.328e-05,0.0,0 STARLINK-3688,1 52310U 22041BB  23321.26422705  .00002328  00000-0  16428-3 0  9998,2 52310  53.2173 275.4700 0001430  87.7690 272.3466 15.08840483 88539,6917.879,95.438,540.733,538.755,0.0
52310.0,STARLINK-3688,PAYLOAD,2023-11-18 14:08:12,15.08842762,0.0001637,53.2177,269.5205,84.6901,275.4278,0.00010099,1.32e-05,0.0,0 STARLINK-3688,1 52310U 22041BB  23322.58902783  .00001320  00000-0  10099-3 0  9992,2 52310  53.2177 269.5205 0001637  84.6901 275.4278 15.08842762 88736,6917.872,95.437,540.869,538.604,0.0
52310.0,STARLINK-3688,PAYLOAD,2023-11-19 02:51:18,15.08809332,0.0001744,53.2175,267.1416,95.5326,264.5865,0.0011209,0.00017581,0.0,0 STARLINK-3688,1 52310U 22041BB  23323.11896076  .00017581  00000-0  11209-2 0  9998,2 52310  53.2175 267.1416 0001744  95.5326 264.5865 15.08809332 88819,6917.974,95.439,541.046,538.633,0.0
52310.0,STARLINK-3688,PAYLOAD,2023-11-19 13:58:58,15.0884521,0.0001655,53.2175,265.0616,85.896,274.2221,0.00027059,4.022e-05,0.0,0 STARLINK-3688,1 52310U 22041BB  23323.58262606  .00004022  00000-0  27059-3 0  9992,2 52310  53.2175 265.0616 0001655  85.8960 274.2221 15.08845210 88881,6917.864,95.437,540.874,538.585,0.0
52310.0,STARLINK-3688,PAYLOAD,2023-11-20 05:52:49,15.08851382,0.0001594,53.218,262.0862,107.108,253.0087,6.2386e-05,7.05e-06,0.0,0 STARLINK-3688,1 52310U 22041BB  23324.24501941  .00000705  00000-0  62386-4 0  9991,2 52310  53.2180 262.0862 0001594 107.1080 253.0087 15.08851382 88983,6917.846,95.437,540.813,538.608,0.0
52310.0,STARLINK-3688,PAYLOAD,2023-11-21 02:32:50,15.08844478,0.0001542,53.2184,258.2233,89.4507,270.6662,5.2013e-05,5.4e-06,0.0,0 STARLINK-3688,1 52310U 22041BB  23325.10614338  .00000540  00000-0  52013-4 0  9995,2 52310  53.2184 258.2233 0001542  89.4507 270.6662 15.08844478 89113,6917.867,95.437,540.798,538.665,0.0
52310.0,STARLINK-3688,PAYLOAD,2023-11-21 05:43:36,15.08846412,0.0001549,53.2178,257.6276,96.3022,263.8147,9.5166e-05,1.227e-05,0.0,0 STARLINK-3688,1 52310U 22041BB  23325.23862121  .00001227  00000-0  95166-4 0  9993,2 52310  53.2178 257.6276 0001549  96.3022 263.8147 15.08846412 89136,6917.861,95.437,540.797,538.654,0.0
52310.0,STARLINK-3688,PAYLOAD,2023-11-22 02:23:37,15.08842689,0.0001602,53.2171,253.7611,103.8264,256.2907,5.3989e-05,5.71e-06,0.0,0 STARLINK-3688,1 52310U 22041BB  23326.09974331  .00000571  00000-0  53989-4 0  9993,2 52310  53.2171 253.7611 0001602 103.8264 256.2907 15.08842689 89267,6917.872,95.437,540.845,538.629,0.0
52310.0,STARLINK-3688,PAYLOAD,2023-11-23 02:14:24,15.08849778,0.0001511,53.2171,249.3015,92.2197,267.8968,0.0001618,2.289e-05,0.0,0 STARLINK-3688,1 52310U 22041BB  23327.09334009  .00002289  00000-0  16180-3 0  9995,2 52310  53.2171 249.3015 0001511  92.2197 267.8968 15.08849778 89419,6917.851,95.437,540.761,538.67,0.0
